#cP2024  9 19  0  0  0.00000000     289 ORBIT ITRF2 BHN ESOC                    
## 2332 345600.00000000   300.00000000 60572 0.0000000000000                    
+   76   G13G22G21G07G05G20G31G15G16G29G12G19G02G25G30G24G27                    
+        G06G09G03G32G26G08G10G04G18G23G14G11G28E11E12E19E18                    
+        E14E26E24E30E08E09E02E07E03E04E05E21E25E27E31E36E13                    
+        E15E33E34E10R09R11R22R25R20R19R01R08R03R07R02R17R14                    
+        R18R21R05R15R12R04R24R16  0  0  0  0  0  0  0  0  0                    
++         5  5  6  5  5  5  6  5  5  5  5  7  6  6  6  5  5                    
++         5  5  5  5  5  5  5  5  5  5  5  6  5  5  5  5  5                    
++         5  5  5  5  5  5  5  5  5  5  5  6  5  5  5  5  5                    
++         5  5  5  6  5  5  5  5  6  7  6  5  6  6  6  6  5                    
++         5  6  6  6  6  6  6  6  0  0  0  0  0  0  0  0  0                    
%c M  cc GPS ccc cccc cccc cccc cccc ccccc ccccc ccccc ccccc                    
%c cc cc ccc ccc cccc cccc cccc cccc ccccc ccccc ccccc ccccc                    
%f  0.0000000  0.000000000  0.00000000000  0.000000000000000                    
%f  0.0000000  0.000000000  0.00000000000  0.000000000000000                    
%i    0    0    0    0      0      0      0      0         0                    
%i    0    0    0    0      0      0      0      0         0                    
/* CCCCCCCCCCCCCCCCCCCCCCCCCCCCCCCCCCCCCCCCCCCCCCCCCCCCCCCCC                    
/* CCCCCCCCCCCCCCCCCCCCCCCCCCCCCCCCCCCCCCCCCCCCCCCCCCCCCCCCC                    
/* CCCCCCCCCCCCCCCCCCCCCCCCCCCCCCCCCCCCCCCCCCCCCCCCCCCCCCCCC                    
/* PCV:IGS20_2317 OL/AL:EOT11A   NONE     YN ORB:CoN CLK:CoN                    
*  2024  9 19 21 40  0.00000000                                                 
PG13   -792.208778  15933.802451 -21422.531103    677.361923                    
PG22  -9963.647148  22119.401652 -10744.710182    -63.471856                    
PG21 -19414.718067 -16364.884570  -9023.933994    101.427655                    
PG07 -23406.684783  -4347.680010 -11706.159674    -35.936409                    
PG05   5699.439378  24915.815906  -7274.905400   -187.141174                    
PG20    912.964030  26226.826805   4657.024972    370.471937                    
PG31   -435.625840 -17053.571640  20028.052998   -224.491674                    
PG15  10726.449021  11904.472513 -21708.671450    206.212510                    
PG16    -27.792812 -26068.259704  -3945.593136   -176.569378                    
PG29  23333.997736  -1081.416696  12719.069326   -576.769113                    
PG12  10361.823271  17367.317576  16959.810341   -539.272722                    
PG19 -16444.210863  16306.591551  12460.501148    540.208460                    
PG02 -22452.938438 -13904.979009  -3705.462954   -354.559428                    
PG25  15091.072533   4468.726438  21083.734830    499.629042                    
PG30 -17875.523150   5429.828255 -18822.793927   -318.160690                    
PG24  20931.697677  15460.111188  -6752.743316   -486.525153                    
PG27   2863.535444 -17576.972088 -19862.591921    -33.886747                    
PG06  -9506.228765  11231.877983  22184.160800     19.364054                    
PG09 -23742.980307   5250.452484  10661.434603    363.590743                    
PG03 -12365.816314 -13467.492404  19138.893387    543.462975                    
PG32  20164.662683 -16145.610725   5912.803712   -595.532371                    
PG26   5192.690115 -24151.952661   9074.591081     75.132555                    
PG08  -8935.045693 -12679.941901 -21683.594575    358.101492                    
PG10  10449.323664 -18766.004574 -15183.920241   -130.732144                    
PG04 -18782.474913  -4643.968171  18273.704706    446.775125                    
PG18  22797.492189   3662.113167 -13304.767666   -654.262817                    
PG23  14397.244087  -5497.798937 -21571.940605    323.838554                    
PG14 -13134.258133  15102.244777 -17303.172569    499.323726                    
PG11   5546.654396  18714.405657  18076.985401   -736.369922                    
PG28  11572.207291 -10623.902566  21404.748849   -417.196382                    
PE11 -19727.394685 -20372.112725  -8494.121052   1601.978564                    
PE12  -1774.274488 -19013.786455 -22620.049398  -1217.224383                    
PE19  26167.059167 -13714.246113   1843.722707    648.365904                    
PE18  23494.350720 -20164.462850  -9826.566319    566.312100                    
PE14 -19372.506436  12872.755727   3678.339631    237.431974                    
PE26  25963.039297   9839.908432 -10271.284338   -264.410557                    
PE24  -8436.864648 -24047.219484 -15051.746377   -996.820744                    
PE30  -4389.813569  29155.829247  -2685.446482   -734.158492                    
PE08 -10330.744380  19767.991035 -19460.837729   -338.255336                    
PE09 -10864.614120 -13231.550784  24139.271626   -595.909790                    
PE02 -14781.789633  17061.168933 -19153.274116    160.597814                    
PE07  11034.564237  13299.183336 -24034.942579   -142.954374                    
PE03 -25295.075989  14915.419008  -3682.746293   -141.495999                    
PE04   9433.732127 -19830.679460  19848.832202    -37.104506                    
PE05 -25896.453457   1336.015575  14268.323987   4785.678738                    
PE21  16464.995731   4358.175013  24213.335974   -617.775309                    
PE25 -16383.449180  -4868.073862 -24157.604231      9.257538                    
PE27   8545.165530  23946.532478  15168.493227   -456.772775                    
PE31   4322.191134 -29156.826568   2720.549147    -36.437776                    
PE36 -25946.760918 -10292.298159   9849.491083   -285.652790                    
PE13  19366.464180  20479.865328   9048.899916    -24.941559                    
PE15   1130.695877  18683.644771  22938.494300   -128.138383                    
PE33  17833.825077  -5560.217233 -22961.252501     15.422052                    
PE34 -17454.580587   5991.323058  23136.572033   -135.294671                    
PE10 -11082.240984 -21216.928070 -17405.675029   -657.769788                    
PR09 -12034.803216 -21632.676898  -6310.144915    210.063162                    
PR11  -8475.969975   8036.267471 -22661.953343     11.416752                    
PR22 -18551.129550   4133.556595  17043.509639     42.811422                    
PR25 -24976.310834  -4860.673516   1579.736566    -99.009794                    
PR20 -16213.478537 -11217.263295 -16190.899912   -119.329185                    
PR19   5878.956615  -9215.304554 -23045.074206   -291.962490                    
PR01  -7957.661763  20203.505404 -13384.337111     98.338155                    
PR08 -17967.282710  17344.670965   5352.677117     -6.391409                    
PR03  15920.264093  -4878.076457 -19258.626968    107.873869                    
PR07 -16216.003465   5397.068276  18992.659967     91.237595                    
PR02   4739.284500  10642.435219 -22662.110872    -24.747103                    
PR17  25171.699906   4130.125277  -1179.572242    123.481085                    
PR14  13528.508234   8447.789716  19914.827808     26.935373                    
PR18  19250.398888  -3687.159738 -16283.721420    162.856021                    
PR21 -25050.977777  -4677.585694    460.630922   -135.865662                    
PR05  10686.869340 -20238.166610  11238.320269    137.909032                    
PR15   7819.310588  -9767.079321  22252.684976     75.723521                    
PR12   2578.029930  22715.664074 -11299.659463     45.050769                    
PR04  18094.495037 -17098.194119  -5490.518664    255.492065                    
PR24  17067.648811  10691.297390  15691.951607    -72.691480                    
PR16  -2595.208890 -22618.563950  11555.039515     29.271219                    
EOF                                                                             
